     2.100          NAVIGATION                              RINEX VERSION / TYPE
fic2rin                                 05/15/2015 21:33:27 PGM / RUN BY / DATE
                                                            END OF HEADER
12 15  1  3 16  0  0.0  .258546322584D-03  .295585778076D-11  .000000000000D+00
     .160000000000D+02 -.599062500000D+02  .398552315589D-08 -.255537377835D+01
    -.306777656078D-05  .511067442130D-02  .172853469849D-05  .515375775146D+04
     .576000000000D+06 -.149011611938D-07 -.135524916654D+01 -.782310962677D-07
     .988766516014D+00  .360843750000D+03  .497945188502D+00 -.802747723379D-08
    -.925038531568D-10  .100000000000D+01  .182500000000D+04  .000000000000D+00
     .240000000000D+01  .000000000000D+00 -.121071934700D-07  .160000000000D+02
     .568806000000D+06  .400000000000D+01
13 15  1  3 16  0  0.0 -.754189677536D-04 -.341060513165D-11  .000000000000D+00
     .740000000000D+02  .493750000000D+02  .394766443607D-08 -.142146221834D+01
     .259652733803D-05  .586430646945D-02  .113900750875D-04  .515588934326D+04
     .576000000000D+06 -.113621354103D-06  .289923856259D+01 -.111758708954D-07
     .975735245529D+00  .165250000000D+03  .219848783971D+01 -.764674708914D-08
    -.389301930274D-09  .100000000000D+01  .182500000000D+04  .000000000000D+00
     .240000000000D+01  .000000000000D+00 -.111758708954D-07  .740000000000D+02
     .568806000000D+06  .400000000000D+01
14 15  1  3 16  0  0.0  .100265722722D-03 -.352429196937D-11  .000000000000D+00
     .450000000000D+02  .524062500000D+02  .414767276722D-08  .478593538450D+00
     .274740159512D-05  .774276640732D-02  .111367553473D-04  .515377277184D+04
     .576000000000D+06 -.856816768646D-07  .286563262060D+01  .316649675369D-07
     .968218390617D+00  .172000000000D+03 -.196813140759D+01 -.781603985515D-08
    -.492520515456D-09  .100000000000D+01  .182500000000D+04  .000000000000D+00
     .240000000000D+01  .000000000000D+00 -.931322574615D-08  .450000000000D+02
     .568806000000D+06  .400000000000D+01
15 15  1  3 16  0  0.0 -.224171672016D-03 -.227373675443D-11  .000000000000D+00
     .570000000000D+02  .265937500000D+02  .493270546698D-08 -.194822362631D+00
     .132806599140D-05  .698331499007D-02  .103693455458D-04  .515357497406D+04
     .576000000000D+06  .782310962677D-07  .274637949158D+01  .838190317154D-07
     .934742001722D+00  .164750000000D+03  .351667000342D+00 -.819569852660D-08
    -.536093759028D-09  .100000000000D+01  .182500000000D+04  .000000000000D+00
     .240000000000D+01  .000000000000D+00 -.102445483208D-07  .570000000000D+02
     .568806000000D+06  .400000000000D+01
16 15  1  3 16  0  0.0 -.167980324477D-03  .306954461848D-11  .000000000000D+00
     .700000000000D+01 -.700312500000D+02  .406302638421D-08  .158878637316D+01
    -.353902578354D-05  .788699346595D-02  .164844095707D-05  .515372414970D+04
     .576000000000D+06 -.447034835815D-07 -.133660196713D+01  .111758708954D-06
     .989335757920D+00  .364156250000D+03  .228906958254D+00 -.818605526777D-08
    -.275725770799D-09  .100000000000D+01  .182500000000D+04  .000000000000D+00
     .240000000000D+01  .000000000000D+00 -.102445483208D-07  .700000000000D+01
     .568806000000D+06  .400000000000D+01
17 15  1  3 16  0  0.0 -.147854909301D-03 -.227373675443D-11  .000000000000D+00
     .870000000000D+02 -.102781250000D+03  .408624163694D-08  .665158261026D+00
    -.543706119061D-05  .993713573553D-02  .101253390312D-04  .515370036316D+04
     .576000000000D+06 -.135973095894D-06 -.307741814156D+00  .465661287308D-07
     .971320179247D+00  .191531250000D+03 -.206013675843D+01 -.788389982464D-08
     .121433629627D-10  .100000000000D+01  .182500000000D+04  .000000000000D+00
     .240000000000D+01  .000000000000D+00 -.107102096081D-07  .870000000000D+02
     .568806000000D+06  .400000000000D+01
18 15  1  3 16  0  0.0  .369696877897D-03  .272848410532D-11  .000000000000D+00
     .107000000000D+03 -.228750000000D+02  .570059459550D-08  .214862053044D+01
    -.148080289364D-05  .155637345742D-01  .499002635479D-05  .515374423027D+04
     .576000000000D+06  .130385160446D-07  .172667767538D+01 -.335276126862D-06
     .924763231232D+00  .263906250000D+03 -.199781528816D+01 -.839499254228D-08
    -.276082928534D-09  .100000000000D+01  .182500000000D+04  .000000000000D+00
     .240000000000D+01  .000000000000D+00 -.111758708954D-07  .107000000000D+03
     .568806000000D+06  .400000000000D+01
19 15  1  3 16  0  0.0 -.495159067214D-03 -.159161572810D-11  .000000000000D+00
     .920000000000D+02 -.106093750000D+03  .411338562474D-08 -.167653413792D+00
    -.545196235180D-05  .108165609417D-01  .109169632196D-04  .515368915939D+04
     .576000000000D+06  .856816768646D-07 -.257672922094D+00  .113621354103D-06
     .968423123076D+00  .173781250000D+03  .515296090345D+00 -.792425864861D-08
     .127862468842D-09  .100000000000D+01  .182500000000D+04  .000000000000D+00
     .240000000000D+01  .000000000000D+00 -.149011611938D-07  .920000000000D+02
     .568806000000D+06  .400000000000D+01
21 15  1  3 16  0  0.0 -.404016580433D-03 -.227373675443D-11  .000000000000D+00
     .200000000000D+02  .218437500000D+02  .515950062820D-08  .313718227742D+01
     .879168510437D-06  .219357711030D-01  .838935375214D-05  .515363528824D+04
     .576000000000D+06  .234693288803D-06  .682422075356D+00 -.251457095146D-06
     .933343231138D+00  .200531250000D+03 -.196375605661D+01 -.789211445253D-08
     .634669293666D-09  .100000000000D+01  .182500000000D+04  .000000000000D+00
     .240000000000D+01  .000000000000D+00 -.116415321827D-07  .200000000000D+02
     .568806000000D+06  .400000000000D+01
22 15  1  3 16  0  0.0  .303539913148D-03  .386535248253D-11  .000000000000D+00
     .460000000000D+02 -.189375000000D+02  .593131849179D-08  .164867790870D+01
    -.104866921902D-05  .735121453181D-02  .526197254658D-05  .515369973946D+04
     .576000000000D+06 -.197440385818D-06  .172813304626D+01 -.912696123123D-07
     .922562232946D+00  .260781250000D+03 -.206765610323D+01 -.867964725643D-08
    -.255010622216D-09  .100000000000D+01  .182500000000D+04  .000000000000D+00
     .240000000000D+01  .000000000000D+00 -.176951289177D-07  .460000000000D+02
     .568806000000D+06  .400000000000D+01
23 15  1  3 16  0  0.0 -.791042111814D-04 -.272848410532D-11  .000000000000D+00
     .570000000000D+02  .438125000000D+02  .451947396852D-08 -.616284944616D+00
     .216439366341D-05  .970440462697D-02  .116098672152D-04  .515368861389D+04
     .576000000000D+06  .162050127983D-06  .279636916370D+01  .819563865662D-07
     .949909416409D+00  .148500000000D+03 -.271771268140D+01 -.796676041898D-08
    -.563952062296D-09  .100000000000D+01  .182500000000D+04  .000000000000D+00
     .240000000000D+01  .000000000000D+00 -.200234353542D-07  .570000000000D+02
     .568806000000D+06  .400000000000D+01
24 15  1  3 16  0  0.0 -.411584042013D-04 -.682121026330D-12  .000000000000D+00
     .105000000000D+03  .119437500000D+03  .446232873105D-08 -.123656497514D+01
     .623054802418D-05  .281795859337D-02  .554881989956D-05  .515369569206D+04
     .576000000000D+06 -.242143869400D-07 -.246037324611D+01 -.819563865662D-07
     .955121901781D+00  .271125000000D+03  .233097111122D+00 -.813855328913D-08
     .200008331150D-09  .100000000000D+01  .182500000000D+04  .000000000000D+00
     .240000000000D+01  .000000000000D+00  .279396772385D-08  .105000000000D+03
     .568806000000D+06  .400000000000D+01
25 15  1  3 16  0  0.0  .553485006094D-05 -.227373675443D-11  .000000000000D+00
     .530000000000D+02 -.530000000000D+02  .423303346569D-08  .300305934685D+01
    -.272318720818D-05  .395637063775D-02  .135600566864D-05  .515374221802D+04
     .576000000000D+06  .186264514923D-08 -.140023496980D+01 -.409781932831D-07
     .977356558138D+00  .362500000000D+03  .664815976231D+00 -.816748306560D-08
    -.857178562071D-10  .100000000000D+01  .182500000000D+04  .000000000000D+00
     .240000000000D+01  .000000000000D+00  .512227416039D-08  .530000000000D+02
     .568806000000D+06  .400000000000D+01
26 15  1  3 16  0  0.0 -.179739668965D-03 -.133013600134D-10  .000000000000D+00
     .290000000000D+02  .503437500000D+02  .414195824347D-08 -.617535792239D+00
     .281073153019D-05  .214615520090D-01  .112727284431D-04  .515369013023D+04
     .576000000000D+06 -.197440385818D-06  .288949689455D+01  .258907675743D-06
     .973080425186D+00  .172062500000D+03  .130059180998D+01 -.805140680198D-08
    -.375015620906D-09  .100000000000D+01  .182500000000D+04  .000000000000D+00
     .240000000000D+01  .000000000000D+00 -.651925802231D-08  .290000000000D+02
     .568806000000D+06  .400000000000D+01
27 15  1  3 16  0  0.0  .417213886976D-04  .272848410532D-11  .000000000000D+00
     .560000000000D+02 -.117312500000D+03  .410088510404D-08  .668658688981D+00
    -.613182783127D-05  .176750542596D-02  .104755163193D-04  .515369573402D+04
     .576000000000D+06  .558793544769D-07 -.354625102622D+00  .558793544769D-08
     .966138769181D+00  .180843750000D+03  .186113288000D+00 -.782711174491D-08
     .478591363823D-10  .100000000000D+01  .182500000000D+04  .000000000000D+00
     .240000000000D+01  .000000000000D+00  .139698386192D-08  .560000000000D+02
     .568806000000D+06  .400000000000D+01
28 15  1  3 16  0  0.0  .409876462072D-03  .261479726760D-11  .000000000000D+00
     .900000000000D+02 -.689687500000D+02  .409909931537D-08  .144503563345D+01
    -.396184623241D-05  .197601760738D-01  .154599547386D-05  .515368623161D+04
     .576000000000D+06 -.132247805595D-06 -.133107940457D+01 -.424683094025D-06
     .987917125297D+00  .366656250000D+03 -.168424024469D+01 -.824177187431D-08
    -.150720563831D-09  .100000000000D+01  .182500000000D+04  .000000000000D+00
     .340000000000D+01  .000000000000D+00 -.111758708954D-07  .900000000000D+02
     .568806000000D+06  .400000000000D+01
